NORAD_CAT_ID,OBJECT_NAME,OBJECT_TYPE,EPOCH,MEAN_MOTION,ECCENTRICITY,INCLINATION,RA_OF_ASC_NODE,ARG_OF_PERICENTER,MEAN_ANOMALY,BSTAR,MEAN_MOTION_DOT,MEAN_MOTION_DDOT,TLE_LINE0,TLE_LINE1,TLE_LINE2,SEMIMAJOR_AXIS,PERIOD,APOGEE,PERIGEE,DECAYED
53019.0,STARLINK-4282,PAYLOAD,2022-12-11 08:51:50,15.0883934,0.0002517,53.2197,0.7365,33.6714,326.4438,0.0001634,2.313e-05,0.0,0 STARLINK-4282,1 53019U 22076AK  22345.36933338  .00002313  00000-0  16340-3 0  9995,2 53019  53.2197   0.7365 0002517  33.6714 326.4438 15.08839340 24666,6917.882,95.438,541.489,538.006,0.0
53019.0,STARLINK-4282,PAYLOAD,2022-12-12 07:07:15,15.08823902,0.0002499,53.2198,356.5734,35.9759,324.1401,-5.1946e-05,-1.115e-05,0.0,0 STARLINK-4282,1 53019U 22076AK  22346.29671144 -.00001115  00000-0 -51946-4 0  9995,2 53019  53.2198 356.5734 0002499  35.9759 324.1401 15.08823902 24800,6917.93,95.439,541.523,538.066,0.0
53019.0,STARLINK-4282,PAYLOAD,2022-12-13 03:47:16,15.08841596,0.0002284,53.2211,352.7093,42.9282,317.1888,0.00025695,3.804e-05,0.0,0 STARLINK-4282,1 53019U 22076AK  22347.15782880  .00003804  00000-0  25695-3 0  9997,2 53019  53.2211 352.7093 0002284  42.9282 317.1888 15.08841596 24937,6917.876,95.437,541.321,538.16,0.0
53019.0,STARLINK-4282,PAYLOAD,2022-12-13 10:08:49,15.08847787,0.0002452,53.22,351.5196,34.7797,325.3355,0.00047434,7.271e-05,0.0,0 STARLINK-4282,1 53019U 22076AK  22347.42278946  .00007271  00000-0  47434-3 0  9997,2 53019  53.2200 351.5196 0002452  34.7797 325.3355 15.08847787 24504,6917.857,95.437,541.418,538.025,0.0
53019.0,STARLINK-4282,PAYLOAD,2022-12-13 18:05:44,15.08843409,0.0002523,53.2188,350.0323,30.5315,329.5823,0.00037071,5.617e-05,0.0,0 STARLINK-4282,1 53019U 22076AK  22347.75399192  .00005617  00000-0  37071-3 0  9998,2 53019  53.2188 350.0323 0002523  30.5315 329.5823 15.08843409 25025,6917.87,95.437,541.48,537.99,0.0
53019.0,STARLINK-4282,PAYLOAD,2022-12-14 11:34:58,15.08856928,0.0002869,53.2194,346.7624,28.7875,331.3275,0.0003562,5.388e-05,0.0,0 STARLINK-4282,1 53019U 22076AK  22348.48262383  .00005388  00000-0  35620-3 0  9993,2 53019  53.2194 346.7624 0002869  28.7875 331.3275 15.08856928 24662,6917.829000000002,95.436,541.678,537.7090000000002,0.0
53019.0,STARLINK-4282,PAYLOAD,2022-12-15 08:14:59,15.08855536,0.000254,53.2191,342.8965,33.913000000000004,326.2024,0.00017905,2.564e-05,0.0,0 STARLINK-4282,1 53019U 22076AK  22349.34373851  .00002564  00000-0  17905-3 0  9991,2 53019  53.2191 342.8965 0002540  33.9130 326.2024 15.08855536 25268,6917.833000000001,95.437,541.455,537.941,0.0
53019.0,STARLINK-4282,PAYLOAD,2022-12-15 09:50:22,15.08855284,0.000254,53.2193,342.5994,33.6221,326.4932,0.00017144,2.442e-05,0.0,0 STARLINK-4282,1 53019U 22076AK  22349.40997814  .00002442  00000-0  17144-3 0  9999,2 53019  53.2193 342.5994 0002540  33.6221 326.4932 15.08855284 24806,6917.834,95.437,541.456,537.942,0.0
53019.0,STARLINK-4282,PAYLOAD,2022-12-15 16:11:54,15.088490599999998,0.0002603,53.2203,341.409,34.51,325.6061,3.9171e-05,3.35e-06,0.0,0 STARLINK-4282,1 53019U 22076AK  22349.67493880  .00000335  00000-0  39171-4 0  9996,2 53019  53.2203 341.4090 0002603  34.5100 325.6061 15.08849060 24842,6917.853,95.437,541.518,537.9169999999998,0.0
53019.0,STARLINK-4282,PAYLOAD,2022-12-16 06:30:22,15.08852189,0.0002569,53.2201,338.7322,30.9975,329.1168,5.358e-05,5.65e-06,0.0,0 STARLINK-4282,1 53019U 22076AK  22350.27109363  .00000565  00000-0  53580-4 0  9999,2 53019  53.2201 338.7322 0002569  30.9975 329.1168 15.08852189 25404,6917.843000000003,95.437,541.485,537.931,0.0
53019.0,STARLINK-4282,PAYLOAD,2022-12-16 09:41:08,15.08851963,0.0002583999999999,53.2199,338.1383,33.1766,326.9388,6.8315e-05,7.99e-06,0.0,0 STARLINK-4282,1 53019U 22076AK  22350.40357282  .00000799  00000-0  68315-4 0  9990,2 53019  53.2199 338.1383 0002584  33.1766 326.9388 15.08851963 24958,6917.844,95.437,541.496,537.9209999999998,0.0
53019.0,STARLINK-4282,PAYLOAD,2022-12-16 16:02:41,15.08843439,0.0002648,53.2201,336.9481,32.3952,327.7202,1.2123e-06,-2.69e-06,0.0,0 STARLINK-4282,1 53019U 22076AK  22350.66853592 -.00000269  00000-0  12123-5 0  9993,2 53019  53.2201 336.9481 0002648  32.3952 327.7202 15.08843439 25466,6917.87,95.437,541.567,537.903,0.0
53019.0,STARLINK-4282,PAYLOAD,2022-12-17 09:31:56,15.08834319,0.0002538,53.2203,333.677,28.1427,331.9702,-8.8459e-05,-1.696e-05,0.0,0 STARLINK-4282,1 53019U 22076AK  22351.39718542 -.00001696  00000-0 -88459-4 0  9999,2 53019  53.2203 333.6770 0002538  28.1427 331.9702 15.08834319 25101,6917.898,95.438,541.519,538.007,0.0
53019.0,STARLINK-4282,PAYLOAD,2022-12-17 15:53:29,15.08833454,0.0002539,53.221,332.4876,29.8125,330.3011,-3.1764e-05,-7.94e-06,0.0,0 STARLINK-4282,1 53019U 22076AK  22351.66214534 -.00000794  00000-0 -31764-4 0  9996,2 53019  53.2210 332.4876 0002539  29.8125 330.3011 15.08833454 25146,6917.9,95.438,541.5219999999998,538.009,0.0
53019.0,STARLINK-4282,PAYLOAD,2022-12-18 03:01:10,15.08842634,0.0002421,53.2199,330.4051,29.0633,331.0493,4.6463e-05,4.51e-06,0.0,0 STARLINK-4282,1 53019U 22076AK  22352.12581778  .00000451  00000-0  46463-4 0  9995,2 53019  53.2199 330.4051 0002421  29.0633 331.0493 15.08842634 25682,6917.871999999999,95.437,541.4119999999998,538.063,0.0
53019.0,STARLINK-4282,PAYLOAD,2022-12-18 07:47:20,15.08833644,0.0002537,53.2206,329.5146,34.9764,325.1394,-1.2211e-05,-4.83e-06,0.0,0 STARLINK-4282,1 53019U 22076AK  22352.32454642 -.00000483  00000-0 -12211-4 0  9997,2 53019  53.2206 329.5146 0002537  34.9764 325.1394 15.08833644 25240,6917.9,95.438,541.52,538.01,0.0
53019.0,STARLINK-4282,PAYLOAD,2022-12-18 15:44:16,15.08839593,0.000243,53.22,328.0273,34.2323,325.8825,-2.1567e-06,-3.23e-06,0.0,0 STARLINK-4282,1 53019U 22076AK  22352.65574258 -.00000323  00000-0 -21567-5 0  9997,2 53019  53.2200 328.0273 0002430  34.2323 325.8825 15.08839593 25295,6917.882,95.438,541.428,538.066,0.0
53019.0,STARLINK-4282,PAYLOAD,2022-12-19 04:27:20,15.08846569,0.0002389,53.2193,325.6481,31.2856,328.8278,0.00014631,2.041e-05,0.0,0 STARLINK-4282,1 53019U 22076AK  22353.18565551  .00002041  00000-0  14631-3 0  9991,2 53019  53.2193 325.6481 0002389  31.2856 328.8278 15.08846569 25848,6917.86,95.437,541.378,538.073,0.0
53019.0,STARLINK-4282,PAYLOAD,2022-12-19 07:38:07,15.08843022,0.0002348,53.2193,325.0548,31.1837,328.9294,0.00014828,2.073e-05,0.0,0 STARLINK-4282,1 53019U 22076AK  22353.31813801  .00002073  00000-0  14828-3 0  9993,2 53019  53.2193 325.0548 0002348  31.1837 328.9294 15.08843022 25399,6917.871,95.437,541.36,538.112,0.0
53019.0,STARLINK-4282,PAYLOAD,2022-12-19 15:35:02,15.08850369,0.0002391,53.2182,323.5691,31.0246,329.0887,0.00023133,3.396e-05,0.0,0 STARLINK-4282,1 53019U 22076AK  22353.64933509  .00003396  00000-0  23133-3 0  9995,2 53019  53.2182 323.5691 0002391  31.0246 329.0887 15.08850369 25448,6917.849,95.437,541.368,538.06,0.0
53019.0,STARLINK-4282,PAYLOAD,2022-12-20 04:18:07,15.08852545,0.0002522,53.2182,321.1903,35.5054,324.6106,0.00017094,2.434e-05,0.0,0 STARLINK-4282,1 53019U 22076AK  22354.17925284  .00002434  00000-0  17094-3 0  9996,2 53019  53.2182 321.1903 0002522  35.5054 324.6106 15.08852545 25522,6917.842,95.437,541.452,537.962,0.0
53019.0,STARLINK-4282,PAYLOAD,2022-12-20 21:47:21,15.08847735,0.0002441,53.2182,317.9184,36.1695,323.9462,5.9194e-05,6.54e-06,0.0,0 STARLINK-4282,1 53019U 22076AK  22354.90789146  .00000654  00000-0  59194-4 0  9992,2 53019  53.2182 317.9184 0002441  36.1695 323.9462 15.08847735 26101,6917.857,95.437,541.41,538.033,0.0
53019.0,STARLINK-4282,PAYLOAD,2022-12-21 04:08:56,15.08818471,0.0002304,53.2191,316.7296,31.8816,328.2315,-0.00016078,-2.845e-05,0.0,0 STARLINK-4282,1 53019U 22076AK  22355.17287628 -.00002845  00000-0 -16078-3 0  9999,2 53019  53.2191 316.7296 0002304  31.8816 328.2315 15.08818471 26141,6917.946,95.439,541.405,538.217,0.0
53019.0,STARLINK-4282,PAYLOAD,2022-12-21 08:55:05,15.08821836,0.0002326,53.2194,315.8371,33.9727,326.1413,-0.0001284,-2.33e-05,0.0,0 STARLINK-4282,1 53019U 22076AK  22355.37159505 -.00002330  00000-0 -12840-3 0  9995,2 53019  53.2194 315.8371 0002326  33.9727 326.1413 15.08821836 25702,6917.936,95.439,541.41,538.192,0.0
53019.0,STARLINK-4282,PAYLOAD,2022-12-22 03:59:42,15.08835818,0.0002422,53.2188,312.2683,35.5093,324.606,3.566e-05,2.79e-06,0.0,0 STARLINK-4282,1 53019U 22076AK  22356.16646610  .00000279  00000-0  35660-4 0  9995,2 53019  53.2188 312.2683 0002422  35.5093 324.6060 15.08835818 26294,6917.893,95.438,541.434,538.0830000000002,0.0
53019.0,STARLINK-4282,PAYLOAD,2022-12-22 08:45:51,15.08841972,0.0002422,53.2187,311.3762,36.5704,323.5453,0.00018211,2.611e-05,0.0,0 STARLINK-4282,1 53019U 22076AK  22356.36518508  .00002611  00000-0  18211-3 0  9995,2 53019  53.2187 311.3762 0002422  36.5704 323.5453 15.08841972 25854,6917.874,95.437,541.415,538.064,0.0
53019.0,STARLINK-4282,PAYLOAD,2022-12-22 21:28:57,15.08840409,0.0002472,53.2189,308.9971,32.2296,327.8847,0.00044622,6.821e-05,0.0,0 STARLINK-4282,1 53019U 22076AK  22356.89511044  .00006821  00000-0  44622-3 0  9993,2 53019  53.2189 308.9971 0002472  32.2296 327.8847 15.08840409 25931,6917.879,95.438,541.4540000000002,538.034,0.0
53019.0,STARLINK-4282,PAYLOAD,2022-12-23 13:22:48,15.08841003,0.0002388,53.2189,306.0232,27.6022,332.5097,0.00016253,2.299e-05,0.0,0 STARLINK-4282,1 53019U 22076AK  22357.55751147  .00002299  00000-0  16253-3 0  9991,2 53019  53.2189 306.0232 0002388  27.6022 332.5097 15.08841003 26506,6917.877,95.437,541.394,538.09,0.0
53019.0,STARLINK-4282,PAYLOAD,2022-12-24 06:52:03,15.08862745,0.0002532,53.2191,302.7533,38.0382,322.0789,0.00093109,0.00014571,0.0,0 STARLINK-4282,1 53019U 22076AK  22358.28614668  .00014571  00000-0  93109-3 0  9999,2 53019  53.2191 302.7533 0002532  38.0382 322.0789 15.08862745 26612,6917.811,95.436,541.427,537.924,0.0
